satname,norad_id,inclination_deg,eccentricity,mean_motion_rev_per_day,perigee_km,apogee_km,l1,l2
STARLINK-1142,45093,53.0221,0.0009309,15.89154767,298.4304113276594,310.8724268062779,1 45093U 20006BB  25346.33349537  .00669990  18493-3  22863-2 0  9996,2 45093  53.0221 192.1964 0009309 208.6106  72.0823 15.89154767  5912
STARLINK-1152,45096,53.0428,0.0004845,15.28093227,478.1892396084868,484.83624020645675,1 45096U 20006BE  25345.98216183  .00046219  00000+0  16667-2 0  9998,2 45096  53.0428 256.8103 0004845  40.9677 319.1685 15.28093227324132
STARLINK-1184,45098,53.0545,0.0001246,15.06390653,546.3773032954105,548.103107294969,1 45098U 20006BG  25346.20259497  .00001683  00000+0  13189-3 0  9994,2 45098  53.0545 279.3634 0001246  95.0234 265.0897 15.06390653323834
STARLINK-1193,45100,53.0544,0.0001348,15.06383781,546.3277235968899,548.1948109697496,1 45100U 20006BJ  25346.26525697 -.00003563  00000+0 -22051-3 0  9991,2 45100  53.0544 279.0818 0001348  91.1597 268.9546 15.06383781323848
STARLINK-1143,45179,53.0526,0.0002759,15.46099778,426.270653661305,430.026362004528,1 45179U 20012B   25346.28518908  .00087817  00000+0  17540-2 0  9991,2 45179  53.0526  31.7660 0002759 183.9020 176.1965 15.46099778322332
STARLINK-1202,45183,53.0524,0.0001735,15.06391849,546.0349873828263,548.4380920010999,1 45183U 20012F   25346.26156821  .00000894  00000+0  78928-4 0  9995,2 45183  53.0524  79.1011 0001735  96.5093 263.6093 15.06391849321662
STARLINK-1216,45185,53.0547,0.0001379,15.06393519,546.2764130357546,548.18642964636,1 45185U 20012H   25346.25419786  .00000628  00000+0  61027-4 0  9995,2 45185  53.0547  79.1322 0001379  97.6648 262.4498 15.06393519321602
STARLINK-1225,45187,53.0512,0.0001791,15.06364012,546.0815084894593,548.5622078524566,1 45187U 20012K   25345.67551110  .00008317  00000+0  57714-3 0  9990,2 45187  53.0512  81.7276 0001791 108.4605 251.6579 15.06364012321566
STARLINK-1230,45189,53.0533,0.0002101,15.06393025,545.7779151677532,548.6879556146059,1 45189U 20012M   25346.27631078 -.00002269  00000+0 -13349-3 0  9999,2 45189  53.0533  79.0308 0002101  98.8980 261.2247 15.06393025318887
STARLINK-1234,45190,53.0509,0.000715,15.42981617,432.4421067781059,442.188203359854,1 45190U 20012N   25346.29042164  .00082266  00000+0  18272-2 0  9997,2 45190  53.0509  26.2520 0007150 355.7272   4.3671 15.42981617322309
STARLINK-1269,45197,53.0537,0.0001679,15.06387905,546.0858553724302,548.411399866186,1 45197U 20012V   25346.28737003 -.00000674  00000+0 -26352-4 0  9991,2 45197  53.0537  78.9797 0001679  95.4895 264.6286 15.06387905321634
STARLINK-1154,45198,53.0567,0.0001373,15.06382767,546.3135174959871,548.2152327135909,1 45198U 20012W   25346.21181964 -.00000777  00000+0 -33300-4 0  9999,2 45198  53.0567  59.3222 0001373  84.9049 275.2097 15.06382767321874
STARLINK-1199,45201,53.0583,0.0001281,15.06408504,546.2983607141414,548.0726283372387,1 45201U 20012Z   25346.22284811  .00000730  00000+0  67909-4 0  9999,2 45201  53.0583  59.2734 0001281  99.0064 261.1070 15.06408504321936
STARLINK-1209,45206,53.0533,0.000742,15.36229114,452.2002492366464,462.3439963748897,1 45206U 20012AE  25346.26084142  .00071698  00000+0  19916-2 0  9997,2 45206  53.0533  28.8814 0007420 357.6387   2.4578 15.36229114321412
STARLINK-1210,45207,53.0212,0.000301,15.6784772,363.0314545217143,367.09085981232965,1 45207U 20012AF  25346.33349537  .00219868  00000+0  19123-2 0  9991,2 45207  53.0212 341.9086 0003010 143.7106 129.1238 15.67847720  5895
STARLINK-1231,45212,53.0517,0.000315,15.15129627,518.4119541673508,522.7581490598677,1 45212U 20012AL  25346.16945301  .00025111  00000+0  13356-2 0  9997,2 45212  53.0517  55.7189 0003150 160.3394 199.7721 15.15129627321930
STARLINK-1271,45217,53.0554,0.0001514,15.06380329,546.2233404767057,548.3203542756919,1 45217U 20012AR  25346.20813199 -.00001790  00000+0 -10133-3 0  9996,2 45217  53.0554  59.3420 0001514  79.6741 280.4419 15.06380329321934
STARLINK-1191,45222,53.0542,0.0001788,15.06385226,546.0185780721822,548.4950989088265,1 45222U 20012AW  25346.15099564  .00007785  00000+0  54115-3 0  9994,2 45222  53.0542  39.5950 0001788  86.8447 273.2747 15.06385226322207
STARLINK-1212,45223,53.0549,0.0001654,15.06396367,546.0772380892549,548.368147075561,1 45223U 20012AX  25346.30219383  .00000547  00000+0  55642-4 0  9991,2 45223  53.0549  39.5734 0001654  87.9400 272.1778 15.06396367322220
STARLINK-1215,45225,53.0555,0.000134,15.06402157,546.276951230926,548.1329428727358,1 45225U 20012AZ  25346.19153427  .00005800  00000+0  40793-3 0  9993,2 45225  53.0555  39.4111 0001340  91.5981 268.5162 15.06402157322168
STARLINK-1221,45227,53.0681,0.0005541,15.38540999,446.6392274563541,454.2066375735676,1 45227U 20012BB  25346.24436028  .00021230  00000+0  55833-3 0  9998,2 45227  53.0681 322.8881 0005541  88.0791 272.0847 15.38540999323231
STARLINK-1222,45228,53.0558,0.0001007,15.18811621,508.7374339356529,510.1245901332759,1 45228U 20012BC  25346.33349537  .01952517  00000+0  83658-1 0  9993,2 45228  53.0558  38.1590 0001007 107.0350  82.4195 15.18811621  5782
STARLINK-1226,45229,53.0549,0.0001586,15.06389829,546.144365538481,548.3410959890789,1 45229U 20012BD  25346.18784197 -.00010053  00000+0 -65709-3 0  9992,2 45229  53.0549  39.4273 0001586 104.1486 255.9679 15.06389829322104
STARLINK-1227,45230,53.0568,0.0002107,15.06386651,545.793291441255,548.7116505643362,1 45230U 20012BE  25346.18417308 -.00000474  00000+0 -12912-4 0  9996,2 45230  53.0568  39.4481 0002107  83.5548 276.5681 15.06386651322222
STARLINK-1246,45235,53.0538,0.0001013,15.0644335,546.377175267523,547.780223968266,1 45235U 20012BK  25345.66810944  .00017144  00000+0  11657-2 0  9999,2 45235  53.0538  81.7620 0001013  92.5249 267.5856 15.06443350321595
STARLINK-1270,45237,53.0555,0.0001247,15.06400108,546.347636009953,548.0748178577496,1 45237U 20012BM  25345.60546594 -.00001675  00000+0 -93587-4 0  9990,2 45237  53.0555  42.0418 0001247 104.2743 255.8385 15.06400108322121
STARLINK-1279,45360,53.05,0.0008325,15.40722507,438.2962992586745,449.65511691764186,1 45360U 20019A   25346.05536730  .00120081  00000+0  28563-2 0  9996,2 45360  53.0500 158.3449 0008325 153.9037 206.2388 15.40722507317095
STARLINK-1301,45361,53.0495,0.0008698,15.43716714,429.22516773302596,441.07756417444034,1 45361U 20019B   25346.07643974  .00123783  00000+0  26621-2 0  9993,2 45361  53.0495 167.1802 0008698 145.7407 214.4161 15.43716714316986
STARLINK-1306,45362,53.0375,0.0001473,15.87909348,307.1603412702434,309.1301200153903,1 45362U 20019C   25346.33349537  .00385013  00000+0  13363-2 0  9996,2 45362  53.0375 144.6143 0001473  72.6965 314.2512 15.87909348  6006
STARLINK-1262,45366,53.0541,0.0001335,15.0640471,546.2725903989003,548.1216546096084,1 45366U 20019G   25345.91509215  .00001838  00000+0  14224-3 0  9992,2 45366  53.0541 200.6501 0001335  94.8622 265.2519 15.06404710316504
STARLINK-1273,45367,53.0558,0.0001583,15.06401916,546.1094039333129,548.3019674275993,1 45367U 20019H   25346.00355094  .00001324  00000+0  10773-3 0  9993,2 45367  53.0558 200.2529 0001583  86.5399 273.5771 15.06401916316511
STARLINK-1276,45368,53.0533,0.0001364,15.06410574,546.2345372178734,548.1237634636864,1 45368U 20019J   25346.04040477  .00004648  00000+0  33062-3 0  9992,2 45368  53.0533 200.0900 0001364  75.7486 284.3655 15.06410574316522
STARLINK-1277,45369,53.0536,0.0001517,15.06408829,546.1339271857332,548.2350697283646,1 45369U 20019K   25345.90041995  .00001858  00000+0  14359-3 0  9991,2 45369  53.0536 201.3446 0001517  91.1079 269.0084 15.06408829316497
STARLINK-1281,45370,53.053,0.0001438,15.06397356,546.2237951414099,548.2155277172369,1 45370U 20019L   25346.29475659  .00004736  00000+0  33662-3 0  9990,2 45370  53.0530 198.9516 0001438  91.0124 269.1030 15.06397356316566
STARLINK-1300,45374,53.053,0.0001727,15.06403703,546.0042030638961,548.3962145358164,1 45374U 20019Q   25345.98512167  .00000255  00000+0  36029-4 0  9998,2 45374  53.0530 200.3378 0001727  98.6162 261.5023 15.06403703316517
STARLINK-1302,45375,53.0531,0.0001451,15.06400081,546.2064416452204,548.2161777246902,1 45375U 20019R   25345.99986014 -.00000395  00000+0 -76396-5 0  9995,2 45375  53.0531 200.2728 0001451  90.7127 269.4028 15.06400081316513
STARLINK-1304,45376,53.0537,0.0001346,15.06421737,546.2127950162203,548.0770809139203,1 45376U 20019S   25346.01829493  .00006406  00000+0  44831-3 0  9991,2 45376  53.0537 200.1877 0001346 103.9352 256.1786 15.06421737316519
STARLINK-1305,45377,53.0514,0.0009044,15.3703928,448.69019942994873,461.04974243897504,1 45377U 20019T   25345.85988036  .00020891  00000+0  57646-3 0  9994,2 45377  53.0514 190.5177 0009044 127.8495 232.3327 15.37039280316649
STARLINK-1319,45379,53.0507,0.0007298,15.42100818,434.93427716451515,444.88589869405587,1 45379U 20019V   25346.27297726  .00092108  00000+0  21031-2 0  9990,2 45379  53.0507 189.5902 0007298 138.9301 221.2254 15.42100818316698
STARLINK-1266,45383,53.0547,0.0001422,15.06398694,546.2307755089478,548.2003457771953,1 45383U 20019Z   25344.97701490 -.00000559  00000+0 -18627-4 0  9998,2 45383  53.0547 184.8681 0001422  92.3943 267.7209 15.06398694316637
STARLINK-1267,45384,53.0541,0.0001604,15.0723304,543.5491697441857,545.7700028890749,1 45384U 20019AA  25346.08936294  .00106387  00000+0  68972-2 0  9995,2 45384  53.0541 180.5197 0001604  86.1586 273.9587 15.07233040316792
STARLINK-1272,45386,53.0519,0.0008918,15.40281621,439.1923535553933,451.3625956122605,1 45386U 20019AC  25346.11044451  .00103565  00000+0  25059-2 0  9990,2 45386  53.0519 168.6623 0008918 149.9049 210.2469 15.40281621316964
STARLINK-1274,45387,53.0326,0.0004755,15.33947711,460.79440982336473,467.30132763352594,1 45387U 20019AD  25345.50762143  .00122065  00000+0  36158-2 0  9996,2 45387  53.0326 160.4367 0004755 110.9778 249.1732 15.33947711317021
